{
  "type": "FeatureCollection",
  "features": [
    {
      "type": "Feature",
      "properties": {
        "norad_id": 37836,
        "name": "EUTELSAT 16A",
        "group": "eutelsat",
        "lat": -0.08251461534912041,
        "lon": -93.80888579437136,
        "alt_km": 35759.15785830666,
        "timestamp": "2025-12-18T10:51:25.461162+00:00",
        "meta_object_name": "EUTELSAT 16A",
        "meta_object_id": "2011-057A",
        "meta_epoch": "2025-12-17T18:32:22.590816",
        "meta_mean_motion": 1.00274602,
        "meta_eccentricity": 0.00061689,
        "meta_inclination": 0.063,
        "meta_ra_of_asc_node": 331.6836,
        "meta_arg_of_pericenter": 298.6095,
        "meta_mean_anomaly": 110.4755,
        "meta_ephemeris_type": 0,
        "meta_classification_type": "U",
        "meta_norad_cat_id": 37836,
        "meta_element_set_no": 999,
        "meta_rev_at_epoch": 550,
        "meta_bstar": 0,
        "meta_mean_motion_dot": 1.3e-06,
        "meta_mean_motion_ddot": 0,
        "tle_line1": "1 37836U 11057A   25351.77248369  .00000130  00000+0  00000+0 0  9995",
        "tle_line2": "2 37836   0.0630 331.6836 0006168 298.6095 110.4755  1.00274602  5503"
      },
      "geometry": {
        "type": "Point",
        "coordinates": [
          -93.80888579437136,
          -0.08251461534912041
        ]
      }
    },
    {
      "type": "Feature",
      "properties": {
        "norad_id": 38992,
        "name": "EUTELSAT 21B",
        "group": "eutelsat",
        "lat": -0.08864751757491546,
        "lon": -88.20852612384722,
        "alt_km": 35770.46803398703,
        "timestamp": "2025-12-18T10:51:25.461175+00:00",
        "meta_object_name": "EUTELSAT 21B",
        "meta_object_id": "2012-062B",
        "meta_epoch": "2025-12-17T18:33:52.446816",
        "meta_mean_motion": 1.0027457,
        "meta_eccentricity": 0.00034945,
        "meta_inclination": 0.0718,
        "meta_ra_of_asc_node": 334.5184,
        "meta_arg_of_pericenter": 301.451,
        "meta_mean_anomaly": 110.7729,
        "meta_ephemeris_type": 0,
        "meta_classification_type": "U",
        "meta_norad_cat_id": 38992,
        "meta_element_set_no": 999,
        "meta_rev_at_epoch": 4800,
        "meta_bstar": 0,
        "meta_mean_motion_dot": 1.55e-06,
        "meta_mean_motion_ddot": 0,
        "tle_line1": "1 38992U 12062B   25351.77352369  .00000155  00000+0  00000+0 0  9999",
        "tle_line2": "2 38992   0.0718 334.5184 0003494 301.4510 110.7729  1.00274570 48006"
      },
      "geometry": {
        "type": "Point",
        "coordinates": [
          -88.20852612384722,
          -0.08864751757491546
        ]
      }
    },
    {
      "type": "Feature",
      "properties": {
        "norad_id": 39020,
        "name": "EUTELSAT 70B",
        "group": "eutelsat",
        "lat": -0.04937849163791112,
        "lon": -39.30062894824506,
        "alt_km": 35779.753556067386,
        "timestamp": "2025-12-18T10:51:25.461187+00:00",
        "meta_object_name": "EUTELSAT 70B",
        "meta_object_id": "2012-069A",
        "meta_epoch": "2025-12-17T19:52:21.785088",
        "meta_mean_motion": 1.00271214,
        "meta_eccentricity": 0.00043005,
        "meta_inclination": 0.0606,
        "meta_ra_of_asc_node": 358.1283,
        "meta_arg_of_pericenter": 253.2547,
        "meta_mean_anomaly": 203.9024,
        "meta_ephemeris_type": 0,
        "meta_classification_type": "U",
        "meta_norad_cat_id": 39020,
        "meta_element_set_no": 999,
        "meta_rev_at_epoch": 4769,
        "meta_bstar": 0,
        "meta_mean_motion_dot": -1.8e-07,
        "meta_mean_motion_ddot": 0,
        "tle_line1": "1 39020U 12069A   25351.82802992 -.00000018  00000+0  00000+0 0  9996",
        "tle_line2": "2 39020   0.0606 358.1283 0004300 253.2547 203.9024  1.00271214 47697"
      },
      "geometry": {
        "type": "Point",
        "coordinates": [
          -39.30062894824506,
          -0.04937849163791112
        ]
      }
    },
    {
      "type": "Feature",
      "properties": {
        "norad_id": 39122,
        "name": "EUTELSAT 117 WEST A",
        "group": "eutelsat",
        "lat": 0.039112866523480345,
        "lon": 133.34281263015842,
        "alt_km": 35794.3327407713,
        "timestamp": "2025-12-18T10:51:25.461200+00:00",
        "meta_object_name": "EUTELSAT 117 WEST A",
        "meta_object_id": "2013-012A",
        "meta_epoch": "2025-12-17T21:19:42.079008",
        "meta_mean_motion": 1.00272801,
        "meta_eccentricity": 0.0002719,
        "meta_inclination": 0.0266,
        "meta_ra_of_asc_node": 43.835,
        "meta_arg_of_pericenter": 227.5866,
        "meta_mean_anomaly": 18.4652,
        "meta_ephemeris_type": 0,
        "meta_classification_type": "U",
        "meta_norad_cat_id": 39122,
        "meta_element_set_no": 999,
        "meta_rev_at_epoch": 4661,
        "meta_bstar": 0,
        "meta_mean_motion_dot": 1.2e-07,
        "meta_mean_motion_ddot": 0,
        "tle_line1": "1 39122U 13012A   25351.88868147  .00000012  00000+0  00000+0 0  9991",
        "tle_line2": "2 39122   0.0266  43.8350 0002719 227.5866  18.4652  1.00272801 46615"
      },
      "geometry": {
        "type": "Point",
        "coordinates": [
          133.34281263015842,
          0.039112866523480345
        ]
      }
    },
    {
      "type": "Feature",
      "properties": {
        "norad_id": 39163,
        "name": "EUTELSAT 7B",
        "group": "eutelsat",
        "lat": -0.09188751399074231,
        "lon": -102.87850650219858,
        "alt_km": 35778.481898420825,
        "timestamp": "2025-12-18T10:51:25.461213+00:00",
        "meta_object_name": "EUTELSAT 7B",
        "meta_object_id": "2013-022A",
        "meta_epoch": "2025-12-17T18:29:45.341952",
        "meta_mean_motion": 1.00270134,
        "meta_eccentricity": 0.0004278,
        "meta_inclination": 0.0655,
        "meta_ra_of_asc_node": 353.712,
        "meta_arg_of_pericenter": 327.1935,
        "meta_mean_anomaly": 50.1863,
        "meta_ephemeris_type": 0,
        "meta_classification_type": "U",
        "meta_norad_cat_id": 39163,
        "meta_element_set_no": 999,
        "meta_rev_at_epoch": 4612,
        "meta_bstar": 0,
        "meta_mean_motion_dot": 7.3e-07,
        "meta_mean_motion_ddot": 0,
        "tle_line1": "1 39163U 13022A   25351.77066368  .00000073  00000+0  00000+0 0  9997",
        "tle_line2": "2 39163   0.0655 353.7120 0004278 327.1935  50.1863  1.00270134 46126"
      },
      "geometry": {
        "type": "Point",
        "coordinates": [
          -102.87850650219858,
          -0.09188751399074231
        ]
      }
    },
    {
      "type": "Feature",
      "properties": {
        "norad_id": 39612,
        "name": "EXPRESS-AT1",
        "group": "eutelsat",
        "lat": -0.006116885575920373,
        "lon": -53.842687686074626,
        "alt_km": 35788.65304687611,
        "timestamp": "2025-12-18T10:51:25.461226+00:00",
        "meta_object_name": "EXPRESS-AT1",
        "meta_object_id": "2014-010A",
        "meta_epoch": "2025-12-17T22:09:07.344288",
        "meta_mean_motion": 1.00270901,
        "meta_eccentricity": 5.622e-05,
        "meta_inclination": 0.0127,
        "meta_ra_of_asc_node": 292.481,
        "meta_arg_of_pericenter": 195.0491,
        "meta_mean_anomaly": 347.543,
        "meta_ephemeris_type": 0,
        "meta_classification_type": "U",
        "meta_norad_cat_id": 39612,
        "meta_element_set_no": 999,
        "meta_rev_at_epoch": 4300,
        "meta_bstar": 0,
        "meta_mean_motion_dot": 1.04e-06,
        "meta_mean_motion_ddot": 0,
        "tle_line1": "1 39612U 14010A   25351.92300167  .00000104  00000+0  00000+0 0  9994",
        "tle_line2": "2 39612   0.0127 292.4810 0000562 195.0491 347.5430  1.00270901 43004"
      },
      "geometry": {
        "type": "Point",
        "coordinates": [
          -53.842687686074626,
          -0.006116885575920373
        ]
      }
    },
    {
      "type": "Feature",
      "properties": {
        "norad_id": 39613,
        "name": "EXPRESS-AT2",
        "group": "eutelsat",
        "lat": 0.0287827249966526,
        "lon": 30.02637287243625,
        "alt_km": 35787.00393803047,
        "timestamp": "2025-12-18T10:51:25.461239+00:00",
        "meta_object_name": "EXPRESS-AT2",
        "meta_object_id": "2014-010B",
        "meta_epoch": "2025-12-17T20:50:22.386624",
        "meta_mean_motion": 1.00272313,
        "meta_eccentricity": 0.0001007,
        "meta_inclination": 0.0158,
        "meta_ra_of_asc_node": 291.1378,
        "meta_arg_of_pericenter": 355.4108,
        "meta_mean_anomaly": 252.6388,
        "meta_ephemeris_type": 0,
        "meta_classification_type": "U",
        "meta_norad_cat_id": 39613,
        "meta_element_set_no": 999,
        "meta_rev_at_epoch": 4268,
        "meta_bstar": 0,
        "meta_mean_motion_dot": -2.56e-06,
        "meta_mean_motion_ddot": 0,
        "tle_line1": "1 39613U 14010B   25351.86831466 -.00000256  00000+0  00000+0 0  9998",
        "tle_line2": "2 39613   0.0158 291.1378 0001007 355.4108 252.6388  1.00272313 42686"
      },
      "geometry": {
        "type": "Point",
        "coordinates": [
          30.02637287243625,
          0.0287827249966526
        ]
      }
    }
  ]
}